{"type": "FeatureCollection", "features": [ {"type": "Feature", "properties": {"norad_id": 29878, "name": "FENGYUN 1C DEB", "group": "fengyun-1c-debris", "lat": -63.55510633105311, "lon": 165.23151456180256, "alt_km": 553.3216981085416, "timestamp": "2025-12-03T15:48:03.343739+00:00", "meta": {"OBJECT_NAME": "FENGYUN 1C DEB", "OBJECT_ID": "1999-025FY", "EPOCH": "2025-12-02T11:23:27.047040", "MEAN_MOTION": 15.06227359, "ECCENTRICITY": 0.00334495, "INCLINATION": 96.9517, "RA_OF_ASC_NODE": 149.9629, "ARG_OF_PERICENTER": 211.3758, "MEAN_ANOMALY": 148.5476, "EPHEMERIS_TYPE": 0, "CLASSIFICATION_TYPE": "U", "NORAD_CAT_ID": 29878, "ELEMENT_SET_NO": 999, "REV_AT_EPOCH": 98493, "BSTAR": 0.0082428043, "MEAN_MOTION_DOT": 0.00124315, "MEAN_MOTION_DDOT": 0}, "tle": {"line1": "1 29878U 99025FY  25336.47461860  .00124315  00000+0  82428-2 0  9995", "line2": "2 29878  96.9517 149.9629 0033449 211.3758 148.5476 15.06227359984931"}}, "geometry": {"type": "Point", "coordinates": [165.23151456180256, -63.55510633105311]}}, {"type": "Feature", "properties": {"norad_id": 29880, "name": "FENGYUN 1C DEB", "group": "fengyun-1c-debris", "lat": -57.29571555344985, "lon": -89.8151652778786, "alt_km": 1090.0499396428722, "timestamp": "2025-12-03T15:48:03.343749+00:00", "meta": {"OBJECT_NAME": "FENGYUN 1C DEB", "OBJECT_ID": "1999-025GA", "EPOCH": "2025-12-03T06:27:48.443616", "MEAN_MOTION": 13.9386466, "ECCENTRICITY": 0.02310911, "INCLINATION": 98.194, "RA_OF_ASC_NODE": 256.8719, "ARG_OF_PERICENTER": 128.0211, "MEAN_ANOMALY": 22.3895, "EPHEMERIS_TYPE": 0, "CLASSIFICATION_TYPE": "U", "NORAD_CAT_ID": 29880, "ELEMENT_SET_NO": 999, "REV_AT_EPOCH": 95430, "BSTAR": 0.0010657307, "MEAN_MOTION_DOT": 1.719e-05, "MEAN_MOTION_DDOT": 0}, "tle": {"line1": "1 29880U 99025GA  25337.26931069  .00001719  00000+0  10657-2 0  9996", "line2": "2 29880  98.1940 256.8719 0231091 128.0211  22.3895 13.93864660954305"}}, "geometry": {"type": "Point", "coordinates": [-89.8151652778786, -57.29571555344985]}}, {"type": "Feature", "properties": {"norad_id": 29881, "name": "FENGYUN 1C DEB", "group": "fengyun-1c-debris", "lat": 71.47974380930556, "lon": -76.45058526063154, "alt_km": 828.6028558494081, "timestamp": "2025-12-03T15:48:03.343758+00:00", "meta": {"OBJECT_NAME": "FENGYUN 1C DEB", "OBJECT_ID": "1999-025GB", "EPOCH": "2025-12-02T22:06:31.241952", "MEAN_MOTION": 13.59554292, "ECCENTRICITY": 0.0291685, "INCLINATION": 98.721, "RA_OF_ASC_NODE": 310.1625, "ARG_OF_PERICENTER": 97.3089, "MEAN_ANOMALY": 331.4157, "EPHEMERIS_TYPE": 0, "CLASSIFICATION_TYPE": "U", "NORAD_CAT_ID": 29881, "ELEMENT_SET_NO": 999, "REV_AT_EPOCH": 93101, "BSTAR": 0.0023705811, "MEAN_MOTION_DOT": 2.289e-05, "MEAN_MOTION_DDOT": 0}, "tle": {"line1": "1 29881U 99025GB  25336.92119493  .00002289  00000+0  23706-2 0  9990", "line2": "2 29881  98.7210 310.1625 0291685  97.3089 331.4157 13.59554292931015"}}, "geometry": {"type": "Point", "coordinates": [-76.45058526063154, 71.47974380930556]}}, {"type": "Feature", "properties": {"norad_id": 29884, "name": "FENGYUN 1C DEB", "group": "fengyun-1c-debris", "lat": -74.3313994209191, "lon": 47.12498703579688, "alt_km": 780.544225383027, "timestamp": "2025-12-03T15:48:03.343767+00:00", "meta": {"OBJECT_NAME": "FENGYUN 1C DEB", "OBJECT_ID": "1999-025GE", "EPOCH": "2025-12-03T08:07:41.056032", "MEAN_MOTION": 14.40233447, "ECCENTRICITY": 0.00444396, "INCLINATION": 99.604, "RA_OF_ASC_NODE": 9.6356, "ARG_OF_PERICENTER": 163.7825, "MEAN_ANOMALY": 261.5546, "EPHEMERIS_TYPE": 0, "CLASSIFICATION_TYPE": "U", "NORAD_CAT_ID": 29884, "ELEMENT_SET_NO": 999, "REV_AT_EPOCH": 98414, "BSTAR": 0.00098053126, "MEAN_MOTION_DOT": 3.087e-05, "MEAN_MOTION_DDOT": 0}, "tle": {"line1": "1 29884U 99025GE  25337.33866963  .00003087  00000+0  98053-3 0  9995", "line2": "2 29884  99.6040   9.6356 0044439 163.7825 261.5546 14.40233447984143"}}, "geometry": {"type": "Point", "coordinates": [47.12498703579688, -74.3313994209191]}}, {"type": "Feature", "properties": {"norad_id": 29885, "name": "FENGYUN 1C DEB", "group": "fengyun-1c-debris", "lat": -64.171288172947, "lon": -69.04289755678192, "alt_km": 874.2092837106666, "timestamp": "2025-12-03T15:48:03.343777+00:00", "meta": {"OBJECT_NAME": "FENGYUN 1C DEB", "OBJECT_ID": "1999-025GF", "EPOCH": "2025-12-03T08:11:33.186912", "MEAN_MOTION": 14.13573369, "ECCENTRICITY": 0.01178004, "INCLINATION": 98.3541, "RA_OF_ASC_NODE": 272.9884, "ARG_OF_PERICENTER": 191.3518, "MEAN_ANOMALY": 289.5795, "EPHEMERIS_TYPE": 0, "CLASSIFICATION_TYPE": "U", "NORAD_CAT_ID": 29885, "ELEMENT_SET_NO": 999, "REV_AT_EPOCH": 97324, "BSTAR": 0.00020318098, "MEAN_MOTION_DOT": 3.69e-06, "MEAN_MOTION_DDOT": 0}, "tle": {"line1": "1 29885U 99025GF  25337.34135633  .00000369  00000+0  20318-3 0  9999", "line2": "2 29885  98.3541 272.9884 0117800 191.3518 289.5795 14.13573369973241"}}, "geometry": {"type": "Point", "coordinates": [-69.04289755678192, -64.171288172947]}}, {"type": "Feature", "properties": {"norad_id": 29887, "name": "FENGYUN 1C DEB", "group": "fengyun-1c-debris", "lat": 46.1369464117829, "lon": -111.62349083980133, "alt_km": 830.8146803955087, "timestamp": "2025-12-03T15:48:03.343786+00:00", "meta": {"OBJECT_NAME": "FENGYUN 1C DEB", "OBJECT_ID": "1999-025GH", "EPOCH": "2025-12-03T05:15:53.595648", "MEAN_MOTION": 14.33639267, "ECCENTRICITY": 0.02877339, "INCLINATION": 98.7196, "RA_OF_ASC_NODE": 58.7449, "ARG_OF_PERICENTER": 27.229, "MEAN_ANOMALY": 358.2473, "EPHEMERIS_TYPE": 0, "CLASSIFICATION_TYPE": "U", "NORAD_CAT_ID": 29887, "ELEMENT_SET_NO": 999, "REV_AT_EPOCH": 97838, "BSTAR": 0.00067107327, "MEAN_MOTION_DOT": 2.906e-05, "MEAN_MOTION_DDOT": 0}, "tle": {"line1": "1 29887U 99025GH  25337.21937032  .00002906  00000+0  67107-3 0  9996", "line2": "2 29887  98.7196  58.7449 0287733  27.2290 358.2473 14.33639267978386"}}, "geometry": {"type": "Point", "coordinates": [-111.62349083980133, 46.1369464117829]}}, {"type": "Feature", "properties": {"norad_id": 29888, "name": "FENGYUN 1C DEB", "group": "fengyun-1c-debris", "lat": -61.40159558607943, "lon": -172.7156184046424, "alt_km": 908.7183311650633, "timestamp": "2025-12-03T15:48:03.343795+00:00", "meta": {"OBJECT_NAME": "FENGYUN 1C DEB", "OBJECT_ID": "1999-025GJ", "EPOCH": "2025-12-03T02:33:50.014368", "MEAN_MOTION": 14.19823694, "ECCENTRICITY": 0.0275317, "INCLINATION": 99.1921, "RA_OF_ASC_NODE": 169.4328, "ARG_OF_PERICENTER": 52.692, "MEAN_ANOMALY": 309.901, "EPHEMERIS_TYPE": 0, "CLASSIFICATION_TYPE": "U", "NORAD_CAT_ID": 29888, "ELEMENT_SET_NO": 999, "REV_AT_EPOCH": 97367, "BSTAR": 0.00042285863, "MEAN_MOTION_DOT": 1.258e-05, "MEAN_MOTION_DDOT": 0}, "tle": {"line1": "1 29888U 99025GJ  25337.10682887  .00001258  00000+0  42286-3 0  9990", "line2": "2 29888  99.1921 169.4328 0275317  52.6920 309.9010 14.19823694973671"}}, "geometry": {"type": "Point", "coordinates": [-172.7156184046424, -61.40159558607943]}}, {"type": "Feature", "properties": {"norad_id": 29889, "name": "FENGYUN 1C DEB", "group": "fengyun-1c-debris", "lat": -49.084345045464225, "lon": -96.59914838015985, "alt_km": 962.4777471675352, "timestamp": "2025-12-03T15:48:03.343805+00:00", "meta": {"OBJECT_NAME": "FENGYUN 1C DEB", "OBJECT_ID": "1999-025GK", "EPOCH": "2025-12-03T06:21:58.063968", "MEAN_MOTION": 14.13493492, "ECCENTRICITY": 0.01547467, "INCLINATION": 99.4767, "RA_OF_ASC_NODE": 94.096, "ARG_OF_PERICENTER": 65.3692, "MEAN_ANOMALY": 324.8045, "EPHEMERIS_TYPE": 0, "CLASSIFICATION_TYPE": "U", "NORAD_CAT_ID": 29889, "ELEMENT_SET_NO": 999, "REV_AT_EPOCH": 97185, "BSTAR": 0.00041497421, "MEAN_MOTION_DOT": 8.27e-06, "MEAN_MOTION_DDOT": 0}, "tle": {"line1": "1 29889U 99025GK  25337.26525537  .00000827  00000+0  41497-3 0  9990", "line2": "2 29889  99.4767  94.0960 0154746  65.3692 324.8045 14.13493492971852"}}, "geometry": {"type": "Point", "coordinates": [-96.59914838015985, -49.084345045464225]}}, {"type": "Feature", "properties": {"norad_id": 29890, "name": "FENGYUN 1C DEB", "group": "fengyun-1c-debris", "lat": 36.70483733053778, "lon": -74.35085859928029, "alt_km": 804.9683893836691, "timestamp": "2025-12-03T15:48:03.343814+00:00", "meta": {"OBJECT_NAME": "FENGYUN 1C DEB", "OBJECT_ID": "1999-025GL", "EPOCH": "2025-12-03T01:38:02.493024", "MEAN_MOTION": 14.22975988, "ECCENTRICITY": 0.00149149, "INCLINATION": 99.4677, "RA_OF_ASC_NODE": 97.8688, "ARG_OF_PERICENTER": 99.7546, "MEAN_ANOMALY": 260.5314, "EPHEMERIS_TYPE": 0, "CLASSIFICATION_TYPE": "U", "NORAD_CAT_ID": 29890, "ELEMENT_SET_NO": 999, "REV_AT_EPOCH": 97313, "BSTAR": 0.001130762, "MEAN_MOTION_DOT": 2.499e-05, "MEAN_MOTION_DDOT": 0}, "tle": {"line1": "1 29890U 99025GL  25337.06808441  .00002499  00000+0  11308-2 0  9992", "line2": "2 29890  99.4677  97.8688 0014914  99.7546 260.5314 14.22975988973136"}}, "geometry": {"type": "Point", "coordinates": [-74.35085859928029, 36.70483733053778]}}, {"type": "Feature", "properties": {"norad_id": 29891, "name": "FENGYUN 1C DEB", "group": "fengyun-1c-debris", "lat": 76.84948692898008, "lon": -158.69816241726224, "alt_km": 931.1904576417692, "timestamp": "2025-12-03T15:48:03.343825+00:00", "meta": {"OBJECT_NAME": "FENGYUN 1C DEB", "OBJECT_ID": "1999-025GM", "EPOCH": "2025-12-02T22:28:16.556736", "MEAN_MOTION": 13.99979804, "ECCENTRICITY": 0.00616466, "INCLINATION": 98.7261, "RA_OF_ASC_NODE": 339.5142, "ARG_OF_PERICENTER": 287.7948, "MEAN_ANOMALY": 134.8192, "EPHEMERIS_TYPE": 0, "CLASSIFICATION_TYPE": "U", "NORAD_CAT_ID": 29891, "ELEMENT_SET_NO": 999, "REV_AT_EPOCH": 96351, "BSTAR": 0.00042807085, "MEAN_MOTION_DOT": 5.98e-06, "MEAN_MOTION_DDOT": 0}, "tle": {"line1": "1 29891U 99025GM  25336.93630274  .00000598  00000+0  42807-3 0  9992", "line2": "2 29891  98.7261 339.5142 0061646 287.7948 134.8192 13.99979804963510"}}, "geometry": {"type": "Point", "coordinates": [-158.69816241726224, 76.84948692898008]}}]}